OPTICUBE 04             
1 41851U 16067D   26068.51005515  .00003771  00000+0  24102-3 0  9992
2 41851  98.0811 275.5525 0017089  94.6311 265.6869 15.09188144510131
STARLINK-4457           
1 53663U 22105R   26068.62792303  .00000677  00000+0  51167-4 0  9990
2 53663  97.6034 311.2025 0002008  88.0531 272.0926 15.05645896193294
